{
  "norad_id": 64521,
  "name": "KUIPER-00061",
  "history": [
    {
      "epoch": "2026-03-28T21:09:36.389088Z",
      "apogee_km": 629.9494239102878,
      "perigee_km": 629.143540309844,
      "latitude_deg": 5.573388834116215e-05,
      "longitude_deg": -0.4715284155111316,
      "height_km": 630.197183126858,
      "semi_major_axis_km": 7007.683482110066,
      "eccentricity": 5.75e-05,
      "inclination_deg": 51.9004,
      "raan_deg": 143.2258,
      "arg_perigee_deg": 76.308,
      "mean_anomaly_deg": 283.7947,
      "mean_motion_rev_day": 14.79929562
    }
  ]
}